SPACEMOBILE-008         
1 69589U 26139A   26192.32103221  .00000086  00000+0  21806-4 0  9996
2 69589  52.9941 152.9965 0004879  47.3692 312.7710 15.12799068  3636
SPACEMOBILE-009         
1 69590U 26139B   26192.52093152  .00000004  00000+0  17235-4 0  9992
2 69590  52.9933 152.1023 0005132  43.2568 316.8825 15.12692406  3669
SPACEMOBILE-010         
1 69591U 26139C   26191.92893653  .00000038  00000+0  19202-4 0  9993
2 69591  52.9937 154.8205 0004992  33.2635 326.8669 15.12522766  3581
